#dP2024  3 28  0  0  0.00000000      97 __u+U IGS20 FIT  IAC
## 2307 345600.00000000   900.00000000 60397 0.0000000000000
+  120   C06C07C08C09C10C11C12C13C14C16C19C20C21C22C23C24C25
+        C26C27C28C29C30C32C33C34C35C36C37C38C39C40C41C42C43
+        C44C45C46E02E03E04E05E07E08E09E10E11E12E13E14E15E18
+        E19E21E24E25E26E27E30E31E33E34E36G01G02G03G04G05G06
+        G07G08G09G10G11G12G13G14G15G16G17G18G19G20G21G22G23
+        G24G25G26G27G28G29G30G31G32J02J03J04R01R02R03R04R05
+        R07R08R09R11R12R13R14R15R16R17R18R19R20R21R22R24R25
+        R26  0  0  0  0  0  0  0  0  0  0  0  0  0  0  0  0
++         7  7  7  7  7  6  7  7  6  7  6  6  6  6  6  6  6
++         6  5  5  6  5  5  6  6  6  6  5  6  6  6  6  6  6
++         6  6  5  4  4  4  4  4  4  4  4  4  4  4  4  4  5
++         4  4  4  4  4  4  4  4  4  4  4  4  3  3  3  3  4
++         3  3  3  3  3  3  3  3  4  3  4  4  4  3  3  3  3
++         3  3  3  3  4  3  3  3  3 11 11 11  8  7  7  7  7
++         7  7  6  7  7  8  6  6  6  6  6  8  8  7  6  6  8
++         8  0  0  0  0  0  0  0  0  0  0  0  0  0  0  0  0
%c M  cc GPS ccc cccc cccc cccc cccc ccccc ccccc ccccc ccccc
%c cc cc ccc ccc cccc cccc cccc cccc ccccc ccccc ccccc ccccc
%f  1.2500000  1.025000000  0.00000000000  0.000000000000000
%f  0.0000000  0.000000000  0.00000000000  0.000000000000000
%i    0    0    0    0      0      0      0      0         0
%i    0    0    0    0      0      0      0      0         0
/* INFORMATION & ANALYSIS CENTER (IAC)            FINAL DATA
/* S/V CLOCKS ARE ALIGNED TO GNSS TIME                      
/* G:C1WC2W R:C1PC2P E:C1XC5X C:C2IC6I J:C1CC2S             
/* PCV:IGS20_2290 OL/AL:FES2004  NONE     YN ORB:CoN CLK:CoN
*  2024 03 28  7  0  0.00000000
PC06   -334.253802  34037.866888 -24647.805012    304.213221
PC07 -15102.502322  27392.553549  28272.360160   -874.063012
PC08 -16391.626776  38641.865892  -5005.108468     24.634664
PC09   4404.241322  36806.731429 -19024.277577   -682.168942
PC10  -5539.984423  28214.866662  31063.145011     26.125632
PC11  17825.543624  -3167.657792 -21172.703056    482.583533
PC12  23402.273032  13124.191359  -7627.592510   -221.590078
PC13 -10339.938347  39169.397460 -12000.951942    427.732934
PC14  25514.570113 -11247.424511   1809.147632    508.518248
PC16  -3918.185306  31028.717059 -27824.553756   -422.958245
PC19 -20420.875249  15668.796210 -10712.784139   -916.856687
PC20 -26590.942971   6054.011990   5841.513125   -301.492636
PC21  17184.466506   8165.054456 -20406.080065   -961.735401
PC22  -2102.665528  16852.566615 -22133.557094    -59.064147
PC23   1904.872123 -27652.158277  -3225.718050   -775.639556
PC24  16583.712863  -1569.343775  22369.713681    948.808148
PC25  12369.446753 -21195.095357  13255.662819    360.457425
PC26  11013.092078  17870.726069  18384.185706   -269.066011
PC27 -21133.655893 -18209.765398   -999.074483    290.910664
PC28  -8984.118500 -21392.272457 -15505.247497    222.113543
PC29 -10979.299812  11790.520242  22777.714499    260.498458
PC30 -23350.504582  -4846.308825  14501.706875    -45.552815
PC32 -17129.948985  -8143.186648  20482.728237   -590.953567
PC33  20393.672776 -15814.808136  10657.195846   -963.347950
PC34  22834.534832   3404.534113 -15674.306950    399.742558
PC35   9535.716552  21044.648112  15605.563275    400.697544
PC36 -12978.453200  20699.972657 -13476.102441     32.947810
PC37 -10457.423931 -18358.799932 -18212.643266   -950.002938
PC38 -19463.920671  37362.848331   3004.120840    145.461229
PC39  -7436.547369  27160.736117 -31246.668858     -7.747716
PC40 -21130.110037  20664.280389  29953.435906    -62.804591
PC41   2992.013459 -17126.040682  21891.830500   -913.614297
PC42  26467.077534  -5019.457233  -7305.695053   -444.982436
PC43  11882.451109 -11197.853778 -22642.300481     65.816695
PC44  21746.250971  17422.365530   1112.864467    426.532367
PC45  -1971.379385  27653.147821   3286.883195    -77.723871
PC46 -16547.714322   2576.733939 -22336.034317   -135.260845
PE02  10333.901154  13452.486618  24247.567581    114.799481
PE03  21756.097529  14641.213203 -13738.825236   -103.320718
PE04 -29061.314045  -3048.162223  -4702.838688   -360.033243
PE05   1842.217257  17465.568961 -23818.124663   4733.197597
PE07  19627.585627  -9881.711709  19846.979431   -111.371343
PE08  29116.198924   3579.268639   4008.392014   -245.889903
PE09 -19677.965152   9705.401102 -19853.776292   -386.401958
PE10 -14903.423432   5840.409471  24892.447176   -612.704387
PE11  -9780.357141  16863.340671  22256.561633   3119.425883
PE12 -17395.953505  -4877.187542  23449.634784   -968.253113
PE13  10062.618916 -16280.890442 -22581.782374    -20.735076
PE14  -4387.446982 -18995.241031 -20455.553961     78.951847
PE15  17394.354519   5465.465866 -23309.636529    -93.761409
PE18  22458.286375  15749.408605  10977.600559    485.641023
PE19 -19968.189528 -15457.631468  15456.607985   -350.180443
PE21   6982.251440 -23888.811392 -16028.530434   -586.242672
PE24 -21216.749103  20534.731133  -2276.005607   -675.617926
PE25  -7357.997695  23980.032971  15718.267787      2.652844
PE26  -3385.794379 -28282.280451  -8063.587852    409.209015
PE27  20975.770690 -20789.170030   1914.448790   -309.858819
PE30  22422.001606  -5207.547559  18585.695943   -139.911584
PE31 -22440.316759   5475.369482 -18513.844061    -19.360219
PE33 -14199.709398 -24023.335324   9879.130383      9.633782
PE34  14465.960029  23652.846536 -10369.036664   -102.442503
PE36   3006.596198  28127.839758   8686.918282   -205.369822
PG01 -13127.595060   6080.512017  21914.776588    176.419719
PG02 -17162.208471  -4154.139427  20407.940628   -463.029946
PG03 -20328.772640   8347.723418  14683.061634    278.011063
PG04 -25668.682129   -988.337688  -7006.566981    325.383105
PG05  14977.645009   4876.394032 -21570.389339   -167.027871
PG06   4943.067016  25571.044014   4952.148348    348.412950
PG07  -8574.152536  16090.014601 -18644.298361    -94.373839
PG08 -25997.404103  -6029.896617  -2498.997029     85.360448
PG09 -17919.275875   9315.999825 -17357.615489    139.998537
PG10   7612.434881 -21849.157122  12953.810215     -3.221728
PG11  11902.306276  22557.299339  -7478.280907   -619.951697
PG12  20827.573168  -6025.511947  15013.891713   -491.295493
PG13  20969.455835  13882.694606  -9096.272196    637.915854
PG14 -11199.749134  22108.568910   9301.678013    361.793530
PG15  26320.619681   3423.301061  -3084.304294    142.315680
PG16 -11196.109098 -10509.201643 -22014.671984   -330.717960
PG17  -5178.811045  14359.801094  22162.153602    711.920673
PG18   7878.581454 -17001.290749 -18733.682730   -584.010457
PG19   5841.647271  16255.373805  20093.401338    460.142578
PG20   7017.917222  15944.155522 -20030.021284    382.301526
PG21 -18016.240666 -10239.093545  17615.295197    129.595460
PG22  -5235.541243  20764.772703  16321.024836      9.179586
PG23  16182.231039 -20897.839616   1175.331268    187.296751
PG24  17824.059365   6589.162371  18302.938748   -452.248006
PG25  19926.796220 -15600.041997   7254.998231    492.417408
PG26  -2278.229648 -19376.175508 -18010.113796    174.112326
PG27 -19496.839139 -13023.847790 -13166.506681    -14.914759
PG28  -4016.358790 -25180.722664   7423.554984   -180.975062
PG29  20192.593699  -5957.449749 -16309.140103   -603.610560
PG30   -899.874417  23715.819489 -11507.623033   -413.541856
PG31  -9927.631008 -24240.437963  -2998.563019   -228.019578
PG32    754.282556 -15383.779474  21856.698195   -617.059837
PJ02 -29681.018261  30043.571242   5744.094138     -3.393492
PJ03 -25845.758575  23373.239323  28833.621686     -0.146263
PJ04 -33184.347420  22775.289265  -7541.510241     50.582375
PR01  13412.309320   7049.655221 -20517.198917     80.879285
PR02  24382.846064   -948.674795  -7270.771834    -22.647786
PR03  21603.481520  -8975.006415  10154.315221     97.177623
PR04   7268.781439 -11494.482533  21612.941125    229.503824
PR05 -11061.668105  -8154.158654  21512.220369    129.093535
PR07 -21214.452513   9176.900805 -10794.666189     78.940505
PR08  -6972.329619  11619.723198 -21551.068546    -74.895765
PR09 -11852.125978    451.522316 -22559.209972    177.810741
PR11  -7352.567593  24366.682098   1563.785756     29.803800
PR12   3506.544168  17212.280205  18522.555297     38.321413
PR13  10876.143171   2216.446633  22948.705875    -45.726635
PR14  12788.928334 -17277.582547  13756.732331     26.277432
PR15   6787.911269 -24396.987771  -3077.292277     80.985907
PR16  -3303.873645 -17387.246281 -18379.649653     24.350895
PR17   9393.582479  -5262.998696 -23120.099280     72.897135
PR18  -3476.507862 -17232.875986 -18495.513481    134.328498
PR19 -13044.192132 -21069.609912  -6060.559870   -270.990795
PR20 -17386.285243 -11824.484840  14483.088366   -110.450669
PR21  -9287.049533   5242.433215  23167.869037    -88.088021
PR22   3546.961097  18035.480363  17702.137211    114.782336
PR24  17982.753083  10429.712815 -14774.237329    -49.534761
PR25  -9682.350224   5287.826265  23001.896011    -25.507688
PR26  -7986.519723  11693.514831 -21183.787822    -27.951515
EOF
